ONEWEB-0053             
1 45157U 20008AC  23313.16734441 -.00001048  00000+0 -30385-2 0  9999
2 45157  87.8922 225.1525 0001834  72.6549 287.4778 13.10373747184126
ONEWEB-0054             
1 45158U 20008AD  23313.27947701  .00000579  00000+0  16214-2 0  9998
2 45158  87.8924 225.1164 0001773  72.2037 287.9283 13.10376245184254
ONEWEB-0056             
1 45159U 20008AE  23312.80182050 -.00000417  00000+0 -12303-2 0  9993
2 45159  87.8926 225.2063 0001899  68.6995 291.4335 13.10376989183585
ONEWEB-0057             
1 45160U 20008AF  23313.03737524 -.00000826  00000+0 -24038-2 0  9995
2 45160  87.8928 225.1540 0001819  65.3884 294.7432 13.10376787184278
ONEWEB-0058             
1 45161U 20008AG  23312.79547914 -.00001666  00000+0 -48087-2 0  9993
2 45161  87.8939 225.2506 0002354  48.5004 311.6325 13.10366069183828
ONEWEB-0059             
1 45162U 20008AH  23313.17384262 -.00000576  00000+0 -16870-2 0  9996
2 45162  87.8924 225.1446 0001613  68.1316 291.9983 13.10369668184511
ONEWEB-0062             
1 45163U 20008AJ  23313.12512689 -.00000131  00000+0 -41193-3 0  9992
2 45163  87.8914 225.1406 0001771  76.2947 283.8377 13.10377275184387
ONEWEB-0065             
1 45164U 20008AK  23313.02601463 -.00000596  00000+0 -17445-2 0  9998
2 45164  87.8932 225.1580 0001870  70.9954 289.1376 13.10374512184053
